ONEWEB-0716             
1 55177U 23004AP  26019.96962772  .00000073  00000+0  15448-3 0  9994
2 55177  87.9084  35.3263 0001682  85.0568 275.0755 13.17648777148065
ONEWEB-0717             
1 55178U 23004AQ  26019.95275496  .00000060  00000+0  12122-3 0  9996
2 55178  87.9094  35.3042 0002460 100.6047 259.5361 13.17649124148116
ONEWEB-0719             
1 55179U 23004AR  26019.96288700  .00000053  00000+0  10342-3 0  9994
2 55179  87.9093  35.2844 0001861  85.6187 274.5157 13.17648332148060
ONEWEB-0530             
1 55796U 23029A   26019.75866353 -.00000035  00000+0 -11916-3 0  9999
2 55796  87.9227 304.0948 0002209  78.5917 281.5465 13.20771675141553
ONEWEB-0534             
1 55797U 23029B   26019.82180029  .00000113  00000+0  24628-3 0  9996
2 55797  87.9224 304.0818 0001678  72.1442 287.9874 13.20772426141569
ONEWEB-0556             
1 55798U 23029C   26019.75234670  .00000001  00000+0 -28425-4 0  9998
2 55798  87.9227 304.0969 0002262  53.6242 306.5100 13.20770866141557
ONEWEB-0562             
1 55799U 23029D   26019.73972597  .00000065  00000+0  12766-3 0  9993
2 55799  87.9223 304.0805 0002559  71.7521 288.3890 13.20771722141558
ONEWEB-0563             
1 55800U 23029E   26019.80917154  .00000109  00000+0  23541-3 0  9994
2 55800  87.9228 304.0960 0001607  67.1584 292.9719 13.20772723141552
